#dP2021 12  8  0  0  0.00000000      96 __u+U ITR00 FIT  IAC
## 2187 259200.00000000   900.00000000 59556 0.0000000000000
+  113   C06C07C08C09C10C11C12C13C14C16C19C20C21C22C23C24C25
+        C26C27C28C29C30C32C33C34C35C36C37C38C39C40C41C42C43
+        C44C45C46E01E02E03E04E05E07E08E09E11E12E13E14E15E18
+        E19E21E24E25E26E27E30E31E33E36G01G02G03G04G05G06G07
+        G08G09G10G12G13G14G15G16G17G18G19G20G21G22G23G24G25
+        G26G27G28G29G30G31G32R01R02R03R04R05R07R08R09R11R12
+        R13R14R15R16R17R18R19R20R21R22R24  0  0  0  0  0  0
++         7  7 12  9  7  7  7 14  6  8  7  7  7  8  8  6  7
++         5  7  7  6  7  7  6  7  8  6  7  9  8  9  7  8  7
++         8  8  7  6  6  6  6  5  7  6  5  6  5  6  6  7  6
++         8  6  5  4  7  6  6  6  5  6  6  6  7  6  7  7  7
++         6  6  6  6  6  6  6  6  4  6  6  6  6  6  7  5  7
++         7  6  5  7  6  6  7  8  5  7  6  7  6  7  6  6  6
++         8  7  6  7  8  6  6  8  7  8  7  0  0  0  0  0  0
%c M  cc GPS ccc cccc cccc cccc cccc ccccc ccccc ccccc ccccc
%c cc cc ccc ccc cccc cccc cccc cccc ccccc ccccc ccccc ccccc
%f  0.0000000  0.000000000  0.00000000000  0.000000000000000
%f  0.0000000  0.000000000  0.00000000000  0.000000000000000
%i    0    0    0    0      0      0      0      0         0
%i    0    0    0    0      0      0      0      0         0
/* INFORMATION & ANALYSIS CENTER (IAC)      ULTRA-RAPID DATA
/* S/V CLOCKS ARE ALIGNED TO GNSS TIME                      
/* G:C1WC2W R:C1PC2P E:C1XC5X C:C2IC6I J:C1CC2S             
/* PCV:IGS14_2178 OL/AL:FES2004  NONE     YN ORB:CoN CLK:CoN
*  2021 12 08 14 15  0.00000000
PC06   -874.163510  36467.569185 -21017.971547    604.680034
PC07 -11547.587109  25669.360702  31386.034431    146.127226
PC08 -16714.757715  36663.456291 -12676.882445    -39.927120
PC09   3296.406953  38906.270093 -14982.364809   -331.433668
PC10  -1464.263956  26814.130843  32757.038840    136.720403
PC11  -3646.889840  21721.300654  17231.014796   -345.775722
PC12 -14535.424924   5024.403057  23328.344957   -424.856800
PC13 -12232.564661  36985.384430 -16370.172581   -184.377132
PC14 -10670.423460  13863.573925 -21715.594160    504.478177
PC16  -4669.959241  33214.904656 -25279.681377     16.848698
PC19   -580.453805 -15955.462205  22904.691867    925.294053
PC20  18607.156233 -10300.212394  18085.368507   -793.370195
PC21 -27752.101807  -1927.160975  -2107.066104   -944.850508
PC22 -20143.935401 -12609.105570  14607.475241   -968.163111
PC23   9404.880403  13975.874373  22251.136511   -963.061918
PC24 -19385.796674  19471.451217  -4992.446489   -953.383896
PC25  -5867.836103  23974.850741  13037.267984   -813.042092
PC26 -20236.780853   5379.583249 -18476.698014    810.783341
PC27  17699.596512   5063.592654 -20982.912866    641.942961
PC28  15056.046022  22010.225509  -8228.259726      6.506863
PC29  -4478.106979 -25874.263458  -9449.058378    484.872351
PC30   9887.973080 -14589.673680 -21641.735357    488.264037
PC32  27776.942950   1744.569235   2060.110122   -957.610616
PC33    577.644727  15967.921339 -22880.742173   -962.740314
PC34  -9369.705715  15381.227410  21305.143802   -519.325257
PC35 -15627.321217 -21819.790648   7701.196304     36.715208
PC36   6802.057051 -23899.535707 -12667.278930   -826.018981
PC37  20021.674288  -3804.430181  19064.013755   -907.838299
PC38 -21768.632507  36097.999093  -3012.695885    195.148007
PC39  -6885.272816  30016.638113 -28747.199100     34.282454
PC40 -18349.539231  18798.318327  32951.717337    224.731651
PC41  19885.605221  12701.639681 -14847.853188   -915.755819
PC42 -19378.394621   9861.448197 -17450.813162   -935.147448
PC43   3859.629470  25769.284090   9958.953522   -955.725842
PC44 -18022.197981  -4681.318451  20789.323007    491.505452
PC45  -9518.467681 -13685.737743 -22375.015930    621.543833
PC46  18819.682762 -20221.874373   3782.374523    -49.719088
PE01 -27684.581762   6009.349896  -8600.969381   -533.670552
PE02  27683.842372  -6102.424655   8476.177620    265.499994
PE03  24681.092176   3882.368713  15869.836735   -504.209779
PE04 -11851.227388  12465.057023 -24093.216123   -916.400073
PE05  23239.726609  18240.704482  -1821.743717   -228.022010
PE07  -8292.407211 -21796.916149  18223.373190   -615.416035
PE08  11340.970272 -12682.874369  24215.101213   5892.232035
PE09   8656.747853  21715.282291 -18168.331001   5436.955000
PE11    278.094707  29238.816899  -4582.464067   4933.102461
PE12 -11639.503338  23017.699151  14517.850307   4871.063729
PE13     35.147871 -29327.980657   4009.789950    424.478222
PE14  26278.017744   9928.211819 -15422.395753  -1667.506426
PE15  11559.258523 -22994.823535 -14608.468906    776.460094
PE18 -19303.577021 -12133.130596   7818.724658  -1833.898461
PE19 -25320.068283  -6077.155282 -14085.991611    447.062195
PE21 -18253.909282  -8022.078829 -21878.661234   -704.101632
PE24  -3517.498770  18544.616591  22800.559352  -1268.710138
PE25  18030.171891   8210.560439  21997.006054   -556.190871
PE26 -11995.255807 -17458.952704  20679.861690   -546.074370
PE27   2153.461967 -18218.742011 -23219.428089   -182.273058
PE30  22008.366230 -17147.537998  -9859.692122    -93.204146
PE31 -21142.387565  17631.413990  10902.971205   -489.091158
PE33 -16235.934352   3123.249720  24561.241982   -461.669573
PE36  11440.462078  18397.640933 -20160.998099   -300.995595
PG01 -13456.329307  18933.395864  12284.429789    489.566315
PG02  14652.995321   2233.928665 -21382.501469   -644.966744
PG03 -20937.511565  12953.267611  -9937.565609    -35.266246
PG04 -11074.917537  10443.567920 -21764.713069   -199.698863
PG05  25771.225993  -4649.685131  -5057.705370    -63.710257
PG06   7283.011138  18425.202675 -17590.592453    137.436475
PG07  -4889.829835  25745.071884   2477.522342    288.337365
PG08 -18944.141213     30.499407  18736.649842    -47.282072
PG09    306.761662  18704.600114 -18916.947147   -360.789006
PG10  -7254.179873 -13457.274753  21871.147995   -263.933581
PG12  22793.150020 -10663.233945  -8532.258328   -137.763486
PG13  20027.724033   8743.761379  15049.753922    226.364728
PG14   6358.993922  14162.558717  21552.633159    -51.809117
PG15  18909.105261  -2693.934217  18182.983670   -100.685414
PG16 -25725.821217   -561.926599  -7743.887793   -437.077706
PG17  11322.919281  22146.491473   9712.128703    544.615429
PG18   4999.515809 -25854.682152   3007.830352    282.985185
PG19  16830.419846  20660.344860    350.552888     89.514055
PG20  21951.152226   1756.547796 -14675.592223    517.742627
PG21 -15565.730388  10290.925420  19357.207968    153.193076
PG22 -24283.512345  10419.486179   -866.612374   -446.261321
PG23   5868.525085 -16330.569516  20064.016193     24.131809
PG24  14380.437295 -15489.801854  15547.766285    273.474028
PG25  13244.882616 -15981.818258 -16680.658356    252.636257
PG26 -18038.020514  -7834.835076 -18054.319933    163.013724
PG27 -21745.327680 -10116.567146  11634.506094   -228.574419
PG28  13774.079084  11441.716566  20081.076945    447.258170
PG29   4571.973006 -15835.193228 -20855.872456   -451.217616
PG30   2291.454894  23705.148645  11571.739341   -497.701884
PG31  -9288.940844 -16191.466894 -18824.712153   -154.034813
PG32 -15609.692518 -20802.620527   5975.474814    -32.293493
PR01 -10889.524854 -12813.686055  19172.441636     89.197055
PR02 -23910.079756  -8774.372236   1995.213519    502.626367
PR03 -20886.483471    649.958850 -14635.941620     47.792938
PR04  -6126.722744   9305.951799 -22926.494904    117.874825
PR05  11887.418689  12948.292775 -18467.915311     83.834180
PR07  20386.135639  -1109.479392  15287.850235    -39.383308
PR08   6020.529480  -9506.337473  22938.468130    -62.446953
PR09  14753.883784    201.580931  20842.132370     27.672359
PR11  14458.077071 -19192.614897  -8563.856903     49.236112
PR12   -203.865309 -13740.762825 -21459.350301    284.836068
PR13 -13904.913319   -950.714509 -21380.721904    -64.564379
PR14 -20164.072118  13304.071171  -8163.997720     71.849322
PR15 -14225.235759  19062.617377   9240.215091     99.730951
PR16   1669.796563  13160.738601  21790.539019    -26.428070
PR17  -9469.833521   5694.295014  23008.340178    481.760280
PR18  -2517.445964  20612.411567  14801.828012     99.795884
PR19   4642.262841  25085.612347   -264.141616   -169.915922
PR20  10770.095324  14048.398957 -18335.360803    -60.809201
PR21   9009.863119  -7032.215497 -22794.256725   -260.630290
PR22   2095.401818 -21275.752054 -13993.993210   -150.135626
PR24 -11518.395151 -13091.613826  18632.075630     70.302711
EOF
